OBJECT_NAME,OBJECT_ID,EPOCH,MEAN_MOTION,ECCENTRICITY,INCLINATION,RA_OF_ASC_NODE,ARG_OF_PERICENTER,MEAN_ANOMALY,EPHEMERIS_TYPE,CLASSIFICATION_TYPE,NORAD_CAT_ID,ELEMENT_SET_NO,REV_AT_EPOCH,BSTAR,MEAN_MOTION_DOT,MEAN_MOTION_DDOT
XW-3 (CAS-9),2021-131B,2026-05-09T05:58:10.871616,14.41319928,.0003597,98.4953,221.8535,198.8593,161.2464,0,U,50466,999,22950,.132E-3,.383E-5,0
ONEWEB-0389,2021-132A,2026-05-09T04:01:14.860704,13.17649309,.0001955,87.9175,13.6242,91.8574,268.2782,0,U,50469,999,21294,-.10295E-4,.9E-7,0
ONEWEB-0390,2021-132B,2026-05-09T04:03:40.125024,13.17649208,.0001581,87.9171,13.6249,82.6657,277.4654,0,U,50470,999,21294,.13902E-3,.67E-6,0
ONEWEB-0391,2021-132C,2026-05-09T04:06:06.210144,13.17649333,.0001841,87.9173,13.6342,108.4375,251.6957,0,U,50471,999,21294,.84437E-4,.46E-6,0
ONEWEB-0392,2021-132D,2026-05-09T04:49:50.203200,13.17649432,.000191,87.9178,13.5934,94.2109,265.9241,0,U,50472,999,21298,-.25602E-3,-.87E-6,0
ONEWEB-0393,2021-132E,2026-05-09T04:14:35.057760,13.17647497,.0001866,87.9173,13.6184,86.7930,273.3415,0,U,50473,999,21297,.95687E-4,.5E-6,0
ONEWEB-0394,2021-132F,2026-05-09T02:20:33.027936,13.18686994,.000198,87.9188,343.2194,91.8142,268.3217,0,U,50474,999,21644,-.6564E-5,.1E-6,0
ONEWEB-0395,2021-132G,2026-05-09T04:18:18.224640,13.11412898,.0001655,87.8914,28.8268,85.2538,274.8779,0,U,50475,999,21060,.13553E-2,.493E-5,0
ONEWEB-0396,2021-132H,2026-05-09T02:10:50.081952,13.18686635,.0001943,87.9188,343.2330,89.0996,271.0359,0,U,50476,999,21648,.14896E-4,.19E-6,0
ONEWEB-0397,2021-132J,2026-05-09T02:32:41.448192,13.18686824,.0002049,87.9186,343.2302,87.5725,272.5642,0,U,50477,999,21646,.27362E-4,.24E-6,0
ONEWEB-0398,2021-132K,2026-05-09T03:31:55.575264,13.11419321,.0001485,87.8922,28.8199,79.9181,280.2114,0,U,50478,999,21049,-.78912E-3,-.267E-5,0
ONEWEB-0399,2021-132L,2026-05-09T03:12:22.595040,13.11419092,.0002177,87.8935,28.8323,91.1345,269.0032,0,U,50479,999,21048,-.14569E-2,-.504E-5,0
ONEWEB-0400,2021-132M,2026-05-09T02:01:06.500064,13.18687232,.0001606,87.9188,343.2241,85.9979,274.1336,0,U,50480,999,21645,.12649E-3,.63E-6,0
ONEWEB-0401,2021-132N,2026-05-09T03:06:40.896000,13.18686956,.0002009,87.9187,343.2123,80.8319,279.3040,0,U,50481,999,21646,-.52453E-4,-.8E-7,0
ONEWEB-0402,2021-132P,2026-05-09T02:13:14.610144,13.18685326,.0002266,87.9185,343.2096,80.0444,280.0944,0,U,50482,999,21648,.27692E-3,.122E-5,0
ONEWEB-0403,2021-132Q,2026-05-09T02:49:40.067904,13.18686040,.0001829,87.9186,343.2283,89.8120,270.3222,0,U,50483,999,21644,.30679E-3,.134E-5,0
ONEWEB-0404,2021-132R,2026-05-09T04:35:24.124416,13.11416862,.0001798,87.8914,28.8224,89.9158,270.2176,0,U,50484,999,21058,-.14889E-3,-.4E-6,0
ONEWEB-0405,2021-132S,2026-05-09T03:09:03.595968,13.18684432,.0001345,87.9190,343.2094,84.0911,276.0375,0,U,50485,999,21684,-.81712E-4,-.19E-6,0
ONEWEB-0406,2021-132T,2026-05-09T02:56:58.428672,13.18671548,.0001942,87.9176,343.2303,101.9474,258.1876,0,U,50486,999,21647,.83519E-2,.3306E-4,0
ONEWEB-0407,2021-132U,2026-05-09T02:47:16.310400,13.18693460,.0001849,87.9186,343.2217,79.2164,280.9176,0,U,50487,999,21641,-.50459E-4,-.7E-7,0
ONEWEB-0409,2021-132V,2026-05-09T04:32:58.187040,13.11413558,.0001717,87.8924,28.8088,88.5977,271.5347,0,U,50488,999,21047,.40298E-3,.156E-5,0
ONEWEB-0412,2021-132W,2026-05-09T02:30:15.237792,13.18686800,.0002105,87.9179,343.2338,81.7869,278.3502,0,U,50489,999,21650,.33492E-3,.145E-5,0
ONEWEB-0413,2021-132X,2026-05-09T02:37:31.969920,13.18685944,.0001999,87.9175,343.2343,78.9289,281.2068,0,U,50490,999,21644,.3554E-3,.153E-5,0
ONEWEB-0414,2021-132Y,2026-05-09T02:15:40.116384,13.18686165,.0001995,87.9188,343.2151,86.3630,273.7730,0,U,50491,999,21647,-.41676E-5,.11E-6,0
ONEWEB-0417,2021-132Z,2026-05-09T02:27:49.872384,13.18686882,.0001798,87.9177,343.2364,92.8108,267.3230,0,U,50492,999,21645,.13585E-3,.66E-6,0
ONEWEB-0418,2021-132AA,2026-05-09T02:42:12.478752,13.18687555,.0001802,87.9190,343.2304,96.9168,263.2169,0,U,50493,999,21651,-.22116E-3,-.74E-6,0
ONEWEB-0419,2021-132AB,2026-05-09T03:08:02.665824,13.18663729,.0001614,87.9187,343.2266,91.2115,268.9202,0,U,50494,999,21643,.65941E-4,.39E-6,0
ONEWEB-0420,2021-132AC,2026-05-09T02:18:05.586336,13.18686254,.0001764,87.9179,343.2398,78.5062,281.6268,0,U,50495,999,21642,.13608E-3,.67E-6,0
ONEWEB-0421,2021-132AD,2026-05-09T02:08:21.861024,13.18684544,.00022,87.9183,343.2369,87.2030,272.9354,0,U,50496,999,21646,.21453E-3,.97E-6,0
ONEWEB-0424,2021-132AE,2026-05-09T03:01:49.682208,13.18687086,.0001457,87.9186,343.2266,89.1474,270.9825,0,U,50497,999,21649,-.10466E-3,-.28E-6,0
ONEWEB-0426,2021-132AF,2026-05-09T02:02:52.890432,13.18772158,.0002353,87.9188,343.2258,99.3770,260.7628,0,U,50498,999,21643,.14194E-3,.69E-6,0
