XW-3 (CAS-9)            
1 50466U 21131B   26129.24873694  .00000383  00000+0  13200-3 0  9994
2 50466  98.4953 221.8535 0003597 198.8593 161.2464 14.41319928229508
ONEWEB-0389             
1 50469U 21132A   26129.16753311  .00000009  00000+0 -10295-4 0  9990
2 50469  87.9175  13.6242 0001955  91.8574 268.2782 13.17649309212941
ONEWEB-0390             
1 50470U 21132B   26129.16921441  .00000067  00000+0  13902-3 0  9993
2 50470  87.9171  13.6249 0001581  82.6657 277.4654 13.17649208212949
ONEWEB-0391             
1 50471U 21132C   26129.17090521  .00000046  00000+0  84437-4 0  9990
2 50471  87.9173  13.6342 0001841 108.4375 251.6957 13.17649333212948
ONEWEB-0392             
1 50472U 21132D   26129.20127550 -.00000087  00000+0 -25602-3 0  9993
2 50472  87.9178  13.5934 0001910  94.2109 265.9241 13.17649432212982
ONEWEB-0393             
1 50473U 21132E   26129.17679465  .00000050  00000+0  95687-4 0  9996
2 50473  87.9173  13.6184 0001866  86.7930 273.3415 13.17647497212978
ONEWEB-0394             
1 50474U 21132F   26129.09760449  .00000010  00000+0 -65640-5 0  9995
2 50474  87.9188 343.2194 0001980  91.8142 268.3217 13.18686994216443
ONEWEB-0395             
1 50475U 21132G   26129.17937760  .00000493  00000+0  13553-2 0  9994
2 50475  87.8914  28.8268 0001655  85.2538 274.8779 13.11412898210603
ONEWEB-0396             
1 50476U 21132H   26129.09085743  .00000019  00000+0  14896-4 0  9998
2 50476  87.9188 343.2330 0001943  89.0996 271.0359 13.18686635216486
ONEWEB-0397             
1 50477U 21132J   26129.10603528  .00000024  00000+0  27362-4 0  9996
2 50477  87.9186 343.2302 0002049  87.5725 272.5642 13.18686824216464
ONEWEB-0398             
1 50478U 21132K   26129.14717101 -.00000267  00000+0 -78912-3 0  9991
2 50478  87.8922  28.8199 0001485  79.9181 280.2114 13.11419321210492
ONEWEB-0399             
1 50479U 21132L   26129.13359485 -.00000504  00000+0 -14569-2 0  9999
2 50479  87.8935  28.8323 0002177  91.1345 269.0032 13.11419092210481
ONEWEB-0400             
1 50480U 21132M   26129.08410301  .00000063  00000+0  12649-3 0  9996
2 50480  87.9188 343.2241 0001606  85.9979 274.1336 13.18687232216454
ONEWEB-0401             
1 50481U 21132N   26129.12964000 -.00000008  00000+0 -52453-4 0  9991
2 50481  87.9187 343.2123 0002009  80.8319 279.3040 13.18686956216465
ONEWEB-0402             
1 50482U 21132P   26129.09253021  .00000122  00000+0  27692-3 0  9993
2 50482  87.9185 343.2096 0002266  80.0444 280.0944 13.18685326216483
ONEWEB-0403             
1 50483U 21132Q   26129.11782486  .00000134  00000+0  30679-3 0  9991
2 50483  87.9186 343.2283 0001829  89.8120 270.3222 13.18686040216446
ONEWEB-0404             
1 50484U 21132R   26129.19125144 -.00000040  00000+0 -14889-3 0  9995
2 50484  87.8914  28.8224 0001798  89.9158 270.2176 13.11416862210585
ONEWEB-0405             
1 50485U 21132S   26129.13129162 -.00000019  00000+0 -81712-4 0  9990
2 50485  87.9190 343.2094 0001345  84.0911 276.0375 13.18684432216840
ONEWEB-0406             
1 50486U 21132T   26129.12289848  .00003306  00000+0  83519-2 0  9993
2 50486  87.9176 343.2303 0001942 101.9474 258.1876 13.18671548216474
ONEWEB-0407             
1 50487U 21132U   26129.11616100 -.00000007  00000+0 -50459-4 0  9994
2 50487  87.9186 343.2217 0001849  79.2164 280.9176 13.18693460216416
ONEWEB-0409             
1 50488U 21132V   26129.18956235  .00000156  00000+0  40298-3 0  9990
2 50488  87.8924  28.8088 0001717  88.5977 271.5347 13.11413558210474
ONEWEB-0412             
1 50489U 21132W   26129.10434303  .00000145  00000+0  33492-3 0  9996
2 50489  87.9179 343.2338 0002105  81.7869 278.3502 13.18686800216504
ONEWEB-0413             
1 50490U 21132X   26129.10939780  .00000153  00000+0  35540-3 0  9992
2 50490  87.9175 343.2343 0001999  78.9289 281.2068 13.18685944216443
ONEWEB-0414             
1 50491U 21132Y   26129.09421431  .00000011  00000+0 -41676-5 0  9993
2 50491  87.9188 343.2151 0001995  86.3630 273.7730 13.18686165216475
ONEWEB-0417             
1 50492U 21132Z   26129.10266056  .00000066  00000+0  13585-3 0  9991
2 50492  87.9177 343.2364 0001798  92.8108 267.3230 13.18686882216451
ONEWEB-0418             
1 50493U 21132AA  26129.11264443 -.00000074  00000+0 -22116-3 0  9992
2 50493  87.9190 343.2304 0001802  96.9168 263.2169 13.18687555216519
ONEWEB-0419             
1 50494U 21132AB  26129.13058641  .00000039  00000+0  65941-4 0  9999
2 50494  87.9187 343.2266 0001614  91.2115 268.9202 13.18663729216432
ONEWEB-0420             
1 50495U 21132AC  26129.09589799  .00000067  00000+0  13608-3 0  9991
2 50495  87.9179 343.2398 0001764  78.5062 281.6268 13.18686254216426
ONEWEB-0421             
1 50496U 21132AD  26129.08914191  .00000097  00000+0  21453-3 0  9999
2 50496  87.9183 343.2369 0002200  87.2030 272.9354 13.18684544216461
ONEWEB-0424             
1 50497U 21132AE  26129.12626947 -.00000028  00000+0 -10466-3 0  9992
2 50497  87.9186 343.2266 0001457  89.1474 270.9825 13.18687086216495
ONEWEB-0426             
1 50498U 21132AF  26129.08533438  .00000069  00000+0  14194-3 0  9995
2 50498  87.9188 343.2258 0002353  99.3770 260.7628 13.18772158216434
